{
  "links" : {
    "next" : "https://api.nasa.gov/neo/rest/v1/neo/browse?page=20&size=20&api_key=jqAGvNAwUIBu4fl9FSOjdm3V4F7hIglRzI6pdX9d",
    "prev" : "https://api.nasa.gov/neo/rest/v1/neo/browse?page=18&size=20&api_key=jqAGvNAwUIBu4fl9FSOjdm3V4F7hIglRzI6pdX9d",
    "self" : "https://api.nasa.gov/neo/rest/v1/neo/browse?page=19&size=20&api_key=jqAGvNAwUIBu4fl9FSOjdm3V4F7hIglRzI6pdX9d"
  },
  "page" : {
    "size" : 20,
    "total_elements" : 20750,
    "total_pages" : 1038,
    "number" : 19
  },
  "near_earth_objects" : [ {
    "links" : {
      "self" : "https://api.nasa.gov/neo/rest/v1/neo/3273785?api_key=jqAGvNAwUIBu4fl9FSOjdm3V4F7hIglRzI6pdX9d"
    },
    "neo_reference_id" : "3273785",
    "name" : "(2005 EL70)",
    "designation" : "2005 EL70",
    "nasa_jpl_url" : "http://ssd.jpl.nasa.gov/sbdb.cgi?sstr=3273785",
    "absolute_magnitude_h" : 24.0,
    "estimated_diameter" : {
      "kilometers" : {
        "estimated_diameter_min" : 0.0421264611,
        "estimated_diameter_max" : 0.0941976306
      },
      "meters" : {
        "estimated_diameter_min" : 42.1264610556,
        "estimated_diameter_max" : 94.1976305719
      },
      "miles" : {
        "estimated_diameter_min" : 0.0261761612,
        "estimated_diameter_max" : 0.0585316759
      },
      "feet" : {
        "estimated_diameter_min" : 138.2101784897,
        "estimated_diameter_max" : 309.0473542854
      }
    },
    "is_potentially_hazardous_asteroid" : false,
    "close_approach_data" : [ {
      "close_approach_date" : "2005-03-03",
      "epoch_date_close_approach" : 1109836800000,
      "relative_velocity" : {
        "kilometers_per_second" : "35.451407774",
        "kilometers_per_hour" : "127625.0679865015",
        "miles_per_hour" : "79301.2540497237"
      },
      "miss_distance" : {
        "astronomical" : "0.0377409696",
        "lunar" : "14.6812362671",
        "kilometers" : "5645968.5",
        "miles" : "3508242.25"
      },
      "orbiting_body" : "Earth"
    } ],
    "orbital_data" : {
      "orbit_id" : "6",
      "orbit_determination_date" : "2017-04-06 09:11:22",
      "first_observation_date" : "2005-03-08",
      "last_observation_date" : "2005-03-10",
      "data_arc_in_days" : 2,
      "observations_used" : 18,
      "orbit_uncertainty" : "9",
      "minimum_orbit_intersection" : ".0141058",
      "jupiter_tisserand_invariant" : "2.574",
      "epoch_osculation" : "2453438.5",
      "eccentricity" : ".9341846225852661",
      "semi_major_axis" : "2.474573971553152",
      "inclination" : "16.76397863631296",
      "ascending_node_longitude" : "167.5674511969548",
      "orbital_period" : "1421.834630198729",
      "perihelion_distance" : ".1628650198784476",
      "perihelion_argument" : "220.2184640136124",
      "aphelion_distance" : "4.786282923227856",
      "perihelion_time" : "2453396.978472384257",
      "mean_anomaly" : "10.5130017402785",
      "mean_motion" : ".253194001857785",
      "equinox" : "J2000",
      "orbit_class" : {
        "orbit_class_type" : "APO",
        "orbit_class_range" : "a (semi-major axis) > 1.0 AU; q (perihelion) < 1.017 AU",
        "orbit_class_description" : "Near-Earth asteroid orbits which cross the Earth’s orbit similar to that of 1862 Apollo"
      }
    },
    "is_sentry_object" : true,
    "sentry_data" : "https://api.nasa.gov/neo/rest/v1/neo/sentry/3273785?api_key=jqAGvNAwUIBu4fl9FSOjdm3V4F7hIglRzI6pdX9d"
  }, {
    "links" : {
      "self" : "https://api.nasa.gov/neo/rest/v1/neo/3273784?api_key=jqAGvNAwUIBu4fl9FSOjdm3V4F7hIglRzI6pdX9d"
    },
    "neo_reference_id" : "3273784",
    "name" : "(2005 EM70)",
    "designation" : "2005 EM70",
    "nasa_jpl_url" : "http://ssd.jpl.nasa.gov/sbdb.cgi?sstr=3273784",
    "absolute_magnitude_h" : 24.8,
    "estimated_diameter" : {
      "kilometers" : {
        "estimated_diameter_min" : 0.0291443905,
        "estimated_diameter_max" : 0.0651688382
      },
      "meters" : {
        "estimated_diameter_min" : 29.1443904535,
        "estimated_diameter_max" : 65.1688382168
      },
      "miles" : {
        "estimated_diameter_min" : 0.018109479,
        "estimated_diameter_max" : 0.0404940262
      },
      "feet" : {
        "estimated_diameter_min" : 95.6180819754,
        "estimated_diameter_max" : 213.8085311752
      }
    },
    "is_potentially_hazardous_asteroid" : false,
    "close_approach_data" : [ {
      "close_approach_date" : "2005-03-02",
      "epoch_date_close_approach" : 1109750400000,
      "relative_velocity" : {
        "kilometers_per_second" : "11.8700828755",
        "kilometers_per_hour" : "42732.2983518914",
        "miles_per_hour" : "26552.1883842628"
      },
      "miss_distance" : {
        "astronomical" : "0.0643760244",
        "lunar" : "25.0422744751",
        "kilometers" : "9630517",
        "miles" : "5984125.5"
      },
      "orbiting_body" : "Earth"
    } ],
    "orbital_data" : {
      "orbit_id" : "6",
      "orbit_determination_date" : "2017-04-06 09:11:21",
      "first_observation_date" : "2005-03-08",
      "last_observation_date" : "2005-03-10",
      "data_arc_in_days" : 2,
      "observations_used" : 16,
      "orbit_uncertainty" : "9",
      "minimum_orbit_intersection" : ".0636018",
      "jupiter_tisserand_invariant" : "4.216",
      "epoch_osculation" : "2453438.5",
      "eccentricity" : ".3888389135450248",
      "semi_major_axis" : "1.603740083170019",
      "inclination" : "18.31407576102029",
      "ascending_node_longitude" : "348.1594274235335",
      "orbital_period" : "741.8214769704271",
      "perihelion_distance" : ".980143531621581",
      "perihelion_argument" : "134.9649308704616",
      "aphelion_distance" : "2.227336634718456",
      "perihelion_time" : "2453397.938230169142",
      "mean_anomaly" : "19.68430086271417",
      "mean_motion" : ".4852919619828579",
      "equinox" : "J2000",
      "orbit_class" : {
        "orbit_class_type" : "APO",
        "orbit_class_range" : "a (semi-major axis) > 1.0 AU; q (perihelion) < 1.017 AU",
        "orbit_class_description" : "Near-Earth asteroid orbits which cross the Earth’s orbit similar to that of 1862 Apollo"
      }
    },
    "is_sentry_object" : false
  }, {
    "links" : {
      "self" : "https://api.nasa.gov/neo/rest/v1/neo/3273786?api_key=jqAGvNAwUIBu4fl9FSOjdm3V4F7hIglRzI6pdX9d"
    },
    "neo_reference_id" : "3273786",
    "name" : "(2005 EN70)",
    "designation" : "2005 EN70",
    "nasa_jpl_url" : "http://ssd.jpl.nasa.gov/sbdb.cgi?sstr=3273786",
    "absolute_magnitude_h" : 20.6,
    "estimated_diameter" : {
      "kilometers" : {
        "estimated_diameter_min" : 0.2016299194,
        "estimated_diameter_max" : 0.4508582062
      },
      "meters" : {
        "estimated_diameter_min" : 201.6299194428,
        "estimated_diameter_max" : 450.8582061718
      },
      "miles" : {
        "estimated_diameter_min" : 0.1252869847,
        "estimated_diameter_max" : 0.2801502144
      },
      "feet" : {
        "estimated_diameter_min" : 661.5155049046,
        "estimated_diameter_max" : 1479.1936371367
      }
    },
    "is_potentially_hazardous_asteroid" : false,
    "close_approach_data" : [ {
      "close_approach_date" : "2005-03-12",
      "epoch_date_close_approach" : 1110614400000,
      "relative_velocity" : {
        "kilometers_per_second" : "25.2853413409",
        "kilometers_per_hour" : "91027.2288272591",
        "miles_per_hour" : "56560.7800454711"
      },
      "miss_distance" : {
        "astronomical" : "0.1958141069",
        "lunar" : "76.1716842651",
        "kilometers" : "29293374",
        "miles" : "18202058"
      },
      "orbiting_body" : "Earth"
    } ],
    "orbital_data" : {
      "orbit_id" : "8",
      "orbit_determination_date" : "2017-04-06 09:11:21",
      "first_observation_date" : "2005-03-08",
      "last_observation_date" : "2005-04-04",
      "data_arc_in_days" : 27,
      "observations_used" : 31,
      "orbit_uncertainty" : "8",
      "minimum_orbit_intersection" : ".135787",
      "jupiter_tisserand_invariant" : "3.681",
      "epoch_osculation" : "2453442.5",
      "eccentricity" : ".366292294154775",
      "semi_major_axis" : "1.777455188966254",
      "inclination" : "46.12749938936364",
      "ascending_node_longitude" : "175.7242947007416",
      "orbital_period" : "865.5584844792626",
      "perihelion_distance" : "1.126387050042496",
      "perihelion_argument" : "10.09762740680655",
      "aphelion_distance" : "2.428523327890013",
      "perihelion_time" : "2453447.675674162622",
      "mean_anomaly" : "357.8473520484698",
      "mean_motion" : ".4159164359836219",
      "equinox" : "J2000",
      "orbit_class" : {
        "orbit_class_type" : "AMO",
        "orbit_class_range" : "1.017 AU < q (perihelion) < 1.3 AU",
        "orbit_class_description" : "Near-Earth asteroid orbits similar to that of 1221 Amor"
      }
    },
    "is_sentry_object" : false
  } ]
}